NORAD_CAT_ID,OBJECT_NAME,OBJECT_TYPE,EPOCH,MEAN_MOTION,ECCENTRICITY,INCLINATION,RA_OF_ASC_NODE,ARG_OF_PERICENTER,MEAN_ANOMALY,BSTAR,MEAN_MOTION_DOT,MEAN_MOTION_DDOT,TLE_LINE0,TLE_LINE1,TLE_LINE2,SEMIMAJOR_AXIS,PERIOD,APOGEE,PERIGEE,DECAYED
51877.0,STARLINK-3556,PAYLOAD,2024-03-21 22:40:16,15.08845026,0.0001915,53.2199,341.2115,116.7375,243.3813,0.00040442,6.155e-05,0.0,0 STARLINK-3556,1 51877U 22022AB  24081.94462992  .00006155  00000-0  40442-3 0  9990,2 51877  53.2199 341.2115 0001915 116.7375 243.3813 15.08845026114898,6917.865,95.437,541.055,538.405,0.0
51877.0,STARLINK-3556,PAYLOAD,2024-03-22 20:55:38,15.08865284,0.0001462,53.2171,337.0355,126.576,233.5367,0.0003773,5.726e-05,0.0,0 STARLINK-3556,1 51877U 22022AB  24082.87196871  .00005726  00000-0  37730-3 0  9992,2 51877  53.2171 337.0355 0001462 126.5760 233.5367 15.08865284115031,6917.803,95.436,540.679,538.657,0.0
51877.0,STARLINK-3556,PAYLOAD,2024-03-22 22:31:02,15.0883012,0.0001055,53.2183,336.747,89.7868,270.3245,-0.00014547,-2.602e-05,0.0,0 STARLINK-3556,1 51877U 22022AB  24082.93822342 -.00002602  00000-0 -14547-3 0  9991,2 51877  53.2183 336.7470 0001055  89.7868 270.3245 15.08830120115041,6917.911,95.438,540.505,539.046,0.0
51877.0,STARLINK-3556,PAYLOAD,2024-03-23 01:41:48,15.08829496,0.0001011,53.2174,336.1508,96.1603,263.9505,-0.00038857,-6.465e-05,0.0,0 STARLINK-3556,1 51877U 22022AB  24083.07069950 -.00006465  00000-0 -38857-3 0  9996,2 51877  53.2174 336.1508 0001011  96.1603 263.9505 15.08829496115061,6917.912,95.438,540.477,539.078,0.0
51877.0,STARLINK-3556,PAYLOAD,2024-03-23 22:21:50,15.08827856,0.0001525,53.2184,332.2838,80.5691,279.5474,-0.00025889,-4.404e-05,0.0,0 STARLINK-3556,1 51877U 22022AB  24083.93183729 -.00004404  00000-0 -25889-3 0  9994,2 51877  53.2184 332.2838 0001525  80.5691 279.5474 15.08827856115199,6917.918,95.438,540.837,538.728,0.0
51877.0,STARLINK-3556,PAYLOAD,2024-03-24 01:32:36,15.08840506,0.0001174,53.2174,331.6858,105.4268,254.6854,1.2064e-05,-9.6e-07,0.0,0 STARLINK-3556,1 51877U 22022AB  24084.06430933 -.00000096  00000-0  12064-4 0  9995,2 51877  53.2174 331.6858 0001174 105.4268 254.6854 15.08840506115216,6917.879,95.438,540.556,538.932,0.0
51877.0,STARLINK-3556,PAYLOAD,2024-03-24 09:29:32,15.08823315,0.0001122,53.2169,330.1989,133.7674,226.3411,-0.0001484,-2.648e-05,0.0,0 STARLINK-3556,1 51877U 22022AB  24084.39551748 -.00002648  00000-0 -14840-3 0  9998,2 51877  53.2169 330.1989 0001122 133.7674 226.3411 15.08823315115266,6917.931,95.439,540.573,539.02,0.0
51877.0,STARLINK-3556,PAYLOAD,2024-03-24 22:12:38,15.08825547,0.0001501,53.2175,327.8204,85.7515,274.3649,0.00046202,7.07e-05,0.0,0 STARLINK-3556,1 51877U 22022AB  24084.92545011  .00007070  00000-0  46202-3 0  9992,2 51877  53.2175 327.8204 0001501  85.7515 274.3649 15.08825547115341,6917.925,95.438,540.828,538.751,0.0
51877.0,STARLINK-3556,PAYLOAD,2024-03-25 01:23:24,15.08844551,0.0001245,53.2171,327.2245,96.8489,263.2645,0.00078961,0.00012303,0.0,0 STARLINK-3556,1 51877U 22022AB  24085.05792328  .00012303  00000-0  78961-3 0  9994,2 51877  53.2171 327.2245 0001245  96.8489 263.2645 15.08844551115365,6917.866,95.437,540.593,538.87,0.0
51877.0,STARLINK-3556,PAYLOAD,2024-03-25 09:20:20,15.0883882,0.000133,53.2174,325.7372,91.7082,268.4062,0.00050639,7.78e-05,0.0,0 STARLINK-3556,1 51877U 22022AB  24085.38912527  .00007780  00000-0  50639-3 0  9990,2 51877  53.2174 325.7372 0001330  91.7082 268.4062 15.08838820115418,6917.884,95.438,540.669,538.829,0.0
51877.0,STARLINK-3556,PAYLOAD,2024-03-25 20:28:01,15.08855376,0.0001236,53.2172,323.6545,88.9094,271.2039,0.00049755,7.643e-05,0.0,0 STARLINK-3556,1 51877U 22022AB  24085.85279774  .00007643  00000-0  49755-3 0  9997,2 51877  53.2172 323.6545 0001236  88.9094 271.2039 15.08855376115489,6917.833,95.437,540.553,538.843,0.0
51877.0,STARLINK-3556,PAYLOAD,2024-03-25 22:03:24,15.08855659,8.71e-05,53.2169,323.3617,96.2296,263.8795,0.00049848,7.658e-05,0.0,0 STARLINK-3556,1 51877U 22022AB  24085.91903692  .00007658  00000-0  49848-3 0  9996,2 51877  53.2169 323.3617 0000871  96.2296 263.8795 15.08855659115493,6917.833,95.437,540.3,539.095,0.0
51877.0,STARLINK-3556,PAYLOAD,2024-03-26 09:11:06,15.08854527,0.0001436,53.2169,321.2793,96.7679,263.3476,0.00035974,5.444e-05,0.0,0 STARLINK-3556,1 51877U 22022AB  24086.38271535  .00005444  00000-0  35974-3 0  9998,2 51877  53.2169 321.2793 0001436  96.7679 263.3476 15.08854527115565,6917.836,95.437,540.694,538.708,0.0
51877.0,STARLINK-3556,PAYLOAD,2024-03-26 21:54:12,15.08832597,0.0001337,53.2171,318.8999,106.0948,254.0191,-0.00011818,-2.168e-05,0.0,0 STARLINK-3556,1 51877U 22022AB  24086.91264235 -.00002168  00000-0 -11818-3 0  9999,2 51877  53.2171 318.8999 0001337 106.0948 254.0191 15.08832597115645,6917.903,95.438,540.693,538.843,0.0
51877.0,STARLINK-3556,PAYLOAD,2024-03-27 09:01:54,15.08839641,0.0001682,53.2177,316.8175,108.9234,251.194,-5.6578e-05,-1.188e-05,0.0,0 STARLINK-3556,1 51877U 22022AB  24087.37631981 -.00001188  00000-0 -56578-4 0  9990,2 51877  53.2177 316.8175 0001682 108.9234 251.1940 15.08839641115712,6917.881,95.438,540.91,538.583,0.0
51877.0,STARLINK-3556,PAYLOAD,2024-03-27 21:44:58,15.08851497,0.0001323,53.2176,314.44,110.0934,250.02,0.00023258,3.417e-05,0.0,0 STARLINK-3556,1 51877U 22022AB  24087.90623439  .00003417  00000-0  23258-3 0  9991,2 51877  53.2176 314.4400 0001323 110.0934 250.0200 15.08851497115797,6917.845,95.437,540.625,538.795,0.0
51877.0,STARLINK-3556,PAYLOAD,2024-03-28 21:35:46,15.08843277,0.0001132,53.2166,309.9816,100.4823,259.6297,0.000247,3.646e-05,0.0,0 STARLINK-3556,1 51877U 22022AB  24088.89984073  .00003646  00000-0  24700-3 0  9991,2 51877  53.2166 309.9816 0001132 100.4823 259.6297 15.08843277115949,6917.87,95.437,540.518,538.952,0.0
51877.0,STARLINK-3556,PAYLOAD,2024-03-29 07:08:04,15.08842422,0.0001066,53.2176,308.1948,91.3218,268.7896,0.00014554,2.029e-05,0.0,0 STARLINK-3556,1 51877U 22022AB  24089.29727982  .00002029  00000-0  14554-3 0  9990,2 51877  53.2176 308.1948 0001066  91.3218 268.7896 15.08842422116004,6917.873,95.437,540.475,539.001,0.0
51877.0,STARLINK-3556,PAYLOAD,2024-03-29 21:26:33,15.08841999,0.0001207,53.2177,305.5203,88.858,271.255,0.00018787,2.704e-05,0.0,0 STARLINK-3556,1 51877U 22022AB  24089.89343984  .00002704  00000-0  18787-3 0  9994,2 51877  53.2177 305.5203 0001207  88.8580 271.2550 15.08841999116093,6917.874,95.437,540.574,538.904,0.0
51877.0,STARLINK-3556,PAYLOAD,2024-03-30 06:58:52,15.08839382,9.1e-05,53.2168,303.7372,86.1657,273.9439,0.00022765,3.337e-05,0.0,0 STARLINK-3556,1 51877U 22022AB  24090.29088218  .00003337  00000-0  22765-3 0  9990,2 51877  53.2168 303.7372 0000910  86.1657 273.9439 15.08839382116151,6917.882,95.438,540.377,539.118,0.0
51877.0,STARLINK-3556,PAYLOAD,2024-03-30 21:17:20,15.08838069,9.68e-05,53.2161,301.0611,94.052,266.0583,6.3527e-05,7.23e-06,0.0,0 STARLINK-3556,1 51877U 22022AB  24090.88704575  .00000723  00000-0  63527-4 0  9994,2 51877  53.2161 301.0611 0000968  94.0520 266.0583 15.08838069116245,6917.886,95.438,540.421,539.082,0.0
51877.0,STARLINK-3556,PAYLOAD,2024-03-31 13:11:12,15.08839688,0.0001169,53.2142,298.0859,84.0918,276.0208,0.00014154,1.965e-05,0.0,0 STARLINK-3556,1 51877U 22022AB  24091.54944646  .00001965  00000-0  14154-3 0  9993,2 51877  53.2142 298.0859 0001169  84.0918 276.0208 15.08839688116341,6917.881,95.438,540.555,538.938,0.0
51877.0,STARLINK-3556,PAYLOAD,2024-03-31 21:08:07,15.08845146,0.0001183,53.2173,296.6009,87.5092,272.6036,0.00024676,3.642e-05,0.0,0 STARLINK-3556,1 51877U 22022AB  24091.88064480  .00003642  00000-0  24676-3 0  9993,2 51877  53.2173 296.6009 0001183  87.5092 272.6036 15.08845146116395,6917.865,95.437,540.548,538.911,0.0
51877.0,STARLINK-3556,PAYLOAD,2024-04-01 13:01:59,15.08842358,0.0001328,53.2162,293.6282,82.9634,277.1509,0.00016826,2.391e-05,0.0,0 STARLINK-3556,1 51877U 22022AB  24092.54304666  .00002391  00000-0  16826-3 0  9998,2 51877  53.2162 293.6282 0001328  82.9634 277.1509 15.08842358116493,6917.873,95.437,540.657,538.819,0.0
51877.0,STARLINK-3556,PAYLOAD,2024-04-02 06:31:12,15.08867018,7.9e-05,53.2161,290.3549,107.325,252.7828,0.00051714,7.958e-05,0.0,0 STARLINK-3556,1 51877U 22022AB  24093.27167167  .00007958  00000-0  51714-3 0  9991,2 51877  53.2161 290.3549 0000790 107.3250 252.7828 15.08867018116606,6917.798,95.436,540.209,539.116,0.0
51877.0,STARLINK-3556,PAYLOAD,2024-04-02 19:14:15,15.0889256,3.82e-05,53.2163,287.9751,143.0594,217.0425,0.00075483,0.00011763,0.0,0 STARLINK-3556,1 51877U 22022AB  24093.80156752  .00011763  00000-0  75483-3 0  9996,2 51877  53.2163 287.9751 0000382 143.0594 217.0425 15.08892560116685,6917.72,95.434,539.849,539.32,0.0
51877.0,STARLINK-3556,PAYLOAD,2024-04-03 12:43:32,15.08828186,0.0001059,53.2163,284.7051,96.4518,263.6594,-0.00021769,-3.749e-05,0.0,0 STARLINK-3556,1 51877U 22022AB  24094.53023307 -.00003749  00000-0 -21769-3 0  9991,2 51877  53.2163 284.7051 0001059  96.4518 263.6594 15.08828186116791,6917.916,95.438,540.514,539.049,0.0
51877.0,STARLINK-3556,PAYLOAD,2024-04-03 19:05:04,15.08824286,0.0001065,53.2161,283.5156,95.0976,265.0138,-0.00026507,-4.502e-05,0.0,0 STARLINK-3556,1 51877U 22022AB  24094.79519665 -.00004502  00000-0 -26507-3 0  9999,2 51877  53.2161 283.5156 0001065  95.0976 265.0138 15.08824286116834,6917.928,95.439,540.53,539.057,0.0
51877.0,STARLINK-3556,PAYLOAD,2024-04-04 18:55:45,15.08974581,7.95e-05,53.2163,279.0549,8.0393,352.0612,-0.0025274,-0.00040433,0.0,0 STARLINK-3556,1 51877U 22022AB  24095.78872268 -.00040433  00000-0 -25274-2 0  9992,2 51877  53.2163 279.0549 0000795   8.0393 352.0612 15.08974581116982,6917.469,95.429,539.884,538.784,0.0
51877.0,STARLINK-3556,PAYLOAD,2024-04-04 22:06:38,15.08820454,0.0001062,53.2163,278.461,100.9206,259.1906,0.00017312,2.467e-05,0.0,0 STARLINK-3556,1 51877U 22022AB  24095.92128283  .00002467  00000-0  17312-3 0  9997,2 51877  53.2163 278.4610 0001062 100.9206 259.1906 15.08820454117003,6917.94,95.439,540.54,539.07,0.0
